{
  "norad_id": 65537,
  "name": "STARLINK-35136",
  "history": [
    {
      "epoch": "2026-03-28T19:08:31.579872Z",
      "apogee_km": 549.918475518567,
      "perigee_km": 549.0795387981007,
      "latitude_deg": 3.837887586629107e-05,
      "longitude_deg": 45.25223787816166,
      "height_km": 552.694901755543,
      "semi_major_axis_km": 6927.636007158334,
      "eccentricity": 6.055e-05,
      "inclination_deg": 97.6048,
      "raan_deg": 158.5967,
      "arg_perigee_deg": 108.2902,
      "mean_anomaly_deg": 251.8391,
      "mean_motion_rev_day": 15.0565396
    },
    {
      "epoch": "2026-03-29T04:42:43.488288Z",
      "apogee_km": 549.9096514486355,
      "perigee_km": 549.0575541144935,
      "latitude_deg": -3.442488846967487e-05,
      "longitude_deg": -98.29719572354587,
      "height_km": 552.6680690371713,
      "semi_major_axis_km": 6927.620602781564,
      "eccentricity": 6.15e-05,
      "inclination_deg": 97.6048,
      "raan_deg": 158.9899,
      "arg_perigee_deg": 106.3904,
      "mean_anomaly_deg": 253.739,
      "mean_motion_rev_day": 15.05658982
    },
    {
      "epoch": "2026-03-30T04:38:13.748352Z",
      "apogee_km": 550.5369731132841,
      "perigee_km": 548.425435084675,
      "latitude_deg": -1.913356730839146e-05,
      "longitude_deg": -97.17554852572383,
      "height_km": 552.5011959346654,
      "semi_major_axis_km": 6927.61820409898,
      "eccentricity": 0.0001524,
      "inclination_deg": 97.6032,
      "raan_deg": 159.9702,
      "arg_perigee_deg": 87.6797,
      "mean_anomaly_deg": 272.4604,
      "mean_motion_rev_day": 15.05659764
    },
    {
      "epoch": "2026-03-30T06:13:54.696576Z",
      "apogee_km": 550.314916502346,
      "perigee_km": 548.3135758373273,
      "latitude_deg": 6.281058859547892e-05,
      "longitude_deg": -121.09376925319125,
      "height_km": 552.7024169866708,
      "semi_major_axis_km": 6927.451246169836,
      "eccentricity": 0.00014445,
      "inclination_deg": 97.605,
      "raan_deg": 160.0381,
      "arg_perigee_deg": 108.9574,
      "mean_anomaly_deg": 251.181,
      "mean_motion_rev_day": 15.05714196
    },
    {
      "epoch": "2026-03-30T11:00:59.669280Z",
      "apogee_km": 550.1550609075757,
      "perigee_km": 548.4146154449518,
      "latitude_deg": 7.195743644240095e-05,
      "longitude_deg": 167.1355089148754,
      "height_km": 552.5632881205181,
      "semi_major_axis_km": 6927.421838176264,
      "eccentricity": 0.00012562,
      "inclination_deg": 97.6049,
      "raan_deg": 160.2346,
      "arg_perigee_deg": 104.3122,
      "mean_anomaly_deg": 255.8245,
      "mean_motion_rev_day": 15.05723784
    },
    {
      "epoch": "2026-03-30T18:59:31.113312Z",
      "apogee_km": 550.6507804514958,
      "perigee_km": 548.4344771846454,
      "latitude_deg": 0.00010039639910155881,
      "longitude_deg": 47.50485063688551,
      "height_km": 552.6074524617826,
      "semi_major_axis_km": 6927.67962881807,
      "eccentricity": 0.00015996,
      "inclination_deg": 97.6051,
      "raan_deg": 160.5625,
      "arg_perigee_deg": 90.1194,
      "mean_anomaly_deg": 270.0217,
      "mean_motion_rev_day": 15.05639739
    },
    {
      "epoch": "2026-03-31T10:56:31.651296Z",
      "apogee_km": 550.8033573576731,
      "perigee_km": 548.3102189171977,
      "latitude_deg": -6.508475952368914e-05,
      "longitude_deg": 168.2520825302041,
      "height_km": 552.5614973271922,
      "semi_major_axis_km": 6927.693788137435,
      "eccentricity": 0.00017994,
      "inclination_deg": 97.6047,
      "raan_deg": 161.217,
      "arg_perigee_deg": 87.357,
      "mean_anomaly_deg": 272.7862,
      "mean_motion_rev_day": 15.05635123
    },
    {
      "epoch": "2026-04-01T04:29:14.324640Z",
      "apogee_km": 550.8842455588338,
      "perigee_km": 548.1824541223968,
      "latitude_deg": 5.921701604845863e-06,
      "longitude_deg": -94.92528673160884,
      "height_km": 552.5390525858325,
      "semi_major_axis_km": 6927.670349840615,
      "eccentricity": 0.000195,
      "inclination_deg": 97.6044,
      "raan_deg": 161.938,
      "arg_perigee_deg": 87.6142,
      "mean_anomaly_deg": 272.5308,
      "mean_motion_rev_day": 15.05642764
    },
    {
      "epoch": "2026-04-02T02:49:02.066592Z",
      "apogee_km": 550.8173893066269,
      "perigee_km": 548.1286453067087,
      "latitude_deg": 1.4580846429512859e-05,
      "longitude_deg": -69.87386916667872,
      "height_km": 552.4759598534456,
      "semi_major_axis_km": 6927.610017306667,
      "eccentricity": 0.00019406,
      "inclination_deg": 97.604,
      "raan_deg": 162.8554,
      "arg_perigee_deg": 87.4826,
      "mean_anomaly_deg": 272.6623,
      "mean_motion_rev_day": 15.05662433
    },
    {
      "epoch": "2026-04-02T21:57:26.524512Z",
      "apogee_km": 550.228929565229,
      "perigee_km": 548.8234452577672,
      "latitude_deg": -2.9196319203022114e-05,
      "longitude_deg": 3.0256721107371187,
      "height_km": 552.8711165702634,
      "semi_major_axis_km": 6927.663187411498,
      "eccentricity": 0.00010144,
      "inclination_deg": 97.6062,
      "raan_deg": 163.6429,
      "arg_perigee_deg": 113.5918,
      "mean_anomaly_deg": 246.5415,
      "mean_motion_rev_day": 15.05645099
    },
    {
      "epoch": "2026-04-03T18:41:32.971776Z",
      "apogee_km": 550.8426503701194,
      "perigee_km": 548.0148180374172,
      "latitude_deg": 5.434811974949399e-05,
      "longitude_deg": 51.99853612528457,
      "height_km": 552.6326685416002,
      "semi_major_axis_km": 6927.565734203768,
      "eccentricity": 0.0002041,
      "inclination_deg": 97.6035,
      "raan_deg": 164.4942,
      "arg_perigee_deg": 95.7653,
      "mean_anomaly_deg": 264.3807,
      "mean_motion_rev_day": 15.0567687
    },
    {
      "epoch": "2026-04-04T17:01:20.359488Z",
      "apogee_km": 551.0611360975126,
      "perigee_km": 547.9963367757127,
      "latitude_deg": 1.8901412823753562e-05,
      "longitude_deg": 77.05083781219939,
      "height_km": 552.5100541837688,
      "semi_major_axis_km": 6927.665736436613,
      "eccentricity": 0.0002212,
      "inclination_deg": 97.602,
      "raan_deg": 165.411,
      "arg_perigee_deg": 86.9991,
      "mean_anomaly_deg": 273.1489,
      "mean_motion_rev_day": 15.05644268
    },
    {
      "epoch": "2026-04-05T10:34:03.334368Z",
      "apogee_km": 550.7568382034096,
      "perigee_km": 548.3724618495035,
      "latitude_deg": -3.16078310556966e-05,
      "longitude_deg": 173.87102278370745,
      "height_km": 552.7797558616387,
      "semi_major_axis_km": 6927.701650026456,
      "eccentricity": 0.00017209,
      "inclination_deg": 97.6021,
      "raan_deg": 166.1308,
      "arg_perigee_deg": 97.3562,
      "mean_anomaly_deg": 262.786,
      "mean_motion_rev_day": 15.0563256
    }
  ]
}